{
  "norad_id": 64321,
  "name": "STARLINK-11596 [DTC]",
  "history": [
    {
      "epoch": "2026-03-28T12:30:29.684160",
      "apogee_km": 357.9814421377632,
      "perigee_km": 353.9798947368254,
      "latitude_deg": -38.4204763724014,
      "longitude_deg": -57.867017599986866,
      "semi_major_axis_km": 6734.117668437294,
      "eccentricity": 0.00029711,
      "inclination_deg": 43.001,
      "raan_deg": 275.9246,
      "arg_perigee_deg": 268.2246,
      "mean_anomaly_deg": 91.8282,
      "mean_motion_rev_day": 15.71019989
    }
  ]
}